[Satellite]
VERSION=1.1
NAME=CZ-2C R/B
NICKNAME=CZ-2C R/B
TLE1=1 43521U 18054D   22342.44393715  .00006424  00000+0  31638-3 0  9991
TLE2=2 43521  35.1544 359.4732 0077289 185.3482 174.6412 15.14683083246068
STATUS=0
